#dP2019  3 31  0  0  0.00000000      96 __u+U IGS08 FIT  IAC
## 2047      0.00000000   900.00000000 58573 0.0000000000000
+   97   C01C02C03C04C05C06C07C08C09C10C11C12C13C14C16E01E02
+        E03E04E05E07E08E09E11E12E13E14E15E18E19E21E24E25E26
+        E27E30E31E33E36G01G02G03G04G05G06G07G08G09G10G11G12
+        G13G14G15G16G17G18G19G20G21G22G23G24G25G26G27G28G29
+        G30G31G32J01J02J03R01R02R03R04R05R07R08R09R10R11R13
+        R14R15R16R17R18R19R20R21R22R23R24R26  0  0  0  0  0
++        12 11 12 12 12  9  8  9  8  8  7  8  8  7  8  5  4
++         4  4  4  4  5  4  4  4  4  4  5  5  4  4  4  4  5
++         4  4  4  5  5  3  3  3  4  3  3  3  3  3  3  3  3
++         3  3  4  3  3  3  3  3  3  3  3  3  3  3  3  3  3
++         3  3  3  9  9 10  5  5  5  5  5  5  5  5  5  5  6
++         5  5  7  5  7  5  6  5  5  5  6  8  0  0  0  0  0
%c M  cc GPS ccc cccc cccc cccc cccc ccccc ccccc ccccc ccccc
%c cc cc ccc ccc cccc cccc cccc cccc ccccc ccccc ccccc ccccc
%f  1.2500000  1.025000000  0.00000000000  0.000000000000000
%f  0.0000000  0.000000000  0.00000000000  0.000000000000000
%i    0    0    0    0      0      0      0      0         0
%i    0    0    0    0      0      0      0      0         0
/* INFORMATION & ANALYSIS CENTER (IAC)            FINAL DATA
/* S/V CLOCKS ARE ALIGNED TO GPS & GLONASS TIME RESPECTIVELY
/* USING THE BROADCAST EPHEMERIS                            
/* PCV:IGS14_2038 OL/AL:FES2004  NONE     YN ORB:CoN CLK:CoN
*  2019 03 31  3 45  0.00000000
PC01 -32302.924125  27101.415044    562.320245    398.213260
PC02   4357.044827  41900.355784  -1126.918854   -410.115937
PC03 -14672.422992  39497.291772   -349.153567     39.336067
PC04 -39645.959798  14385.219895   -154.894576     36.078878
PC05  21925.720804  35987.885549  -1161.917762   -181.368729
PC06 -20831.799134  36326.428255   2972.904144    609.057717
PC07  -7346.181664  30645.137096  28334.064963     67.980136
PC08 -20848.955890  18623.461703 -31567.027237    138.180007
PC09 -10712.336225  36781.964753  17425.825791    647.964730
PC10   4209.193437  37049.412568  20174.995056   -621.152870
PC11  23731.918411  -3927.810118 -14044.520867    -77.463856
PC12   1837.054059  16428.707032 -22429.935481    536.442936
PC13  -4396.317239  23148.066644 -34928.345389   -624.426580
PC14  14328.115518  14254.498315  19287.800363    717.856600
PC16 -17674.989379  37547.196323   6956.293169   -463.111393
PE01  18751.642476  22888.930462    747.193992   -573.511682
PE02 -18773.865124 -22882.968508   -717.053923     53.813684
PE03  -8480.822887 -19535.356109 -20549.544586   -149.865886
PE04  17978.591343   -659.254436  23512.990769   -251.447358
PE05   6065.639174 -28441.652543  -5516.577369     82.422475
PE07 -16984.826487  20676.196880 -12655.311182   -159.441747
PE08 -17858.285942    967.974000 -23582.449466   6380.143314
PE09  16745.279205 -20829.507793  12718.771001   6484.053352
PE11  24207.029205 -12519.841677  11583.984947   5711.632809
PE12  28621.200519   -360.217460  -7582.734609   6468.142817
PE13 -24248.409961  12515.399820 -11445.073787    384.938434
PE14   8691.309231 -21348.435743  10314.307694   -510.931011
PE15 -28670.307329    730.535791   7318.388971    915.422334
PE18   2200.189036  23003.203077 -21572.825046   -610.622028
PE19   7084.559961  21039.287071  19582.477884     -7.395597
PE21   3854.368337  23021.980590  18193.647088   -526.707726
PE24  13006.431698  -9929.246771 -24681.352309   6157.589248
PE25  -3803.013895 -23004.435734 -18236.170791   1849.255277
PE26  -5755.248993  17115.191507 -23444.398783   4737.365306
PE27 -13247.593045   9550.031001  24685.186619    499.708559
PE30 -22450.592565  -9285.375615  16904.659350   4989.936562
PE31  22536.480678   9493.583075 -16677.791608    869.467626
PE33  16345.201305  11495.681845 -21829.382821    847.923607
PE36   5610.346261 -17014.421283  23575.238498    730.054927
PG01  17491.286370  13598.131062 -15056.635402   -191.663479
PG02   5942.660997 -14870.895988  21778.753250   -177.035195
PG03  12685.577139  22550.386203   6142.550635    187.602127
PG04  20074.352657  -4894.608467  16703.265854    141.874912
PG05   -218.794331 -23660.373120  11740.124996      1.167440
PG06  18618.177567  -8465.497112  17008.451694    242.505260
PG07  25695.134630   7150.329117   3024.291312      4.550897
PG08   -331.324921  19610.948896 -17773.453930   -138.135642
PG09  17684.792175    571.396146  19768.799969    436.765613
PG10 -14173.808866   5343.048683 -21755.680603     84.735337
PG11  12399.703407  12874.865675 -20120.231636   -635.490010
PG12 -10399.859976 -23973.968417   5052.212878    255.500094
PG13   9384.267684 -21104.372620 -13192.970001    -69.690364
PG14 -18829.635188  18568.748503   -541.202327    -86.346191
PG15  -3674.605117 -18869.926092 -18425.327329   -320.877509
PG16   -710.526332  24117.125455  10397.081187    -29.184839
PG17  20834.054281 -13292.526425  -9204.692094     31.620221
PG18   7832.418160  15674.842869 -20483.346891     39.719375
PG19  19869.597966 -17635.252143  -1821.354963   -336.220505
PG20 -18115.515087  -4348.018386 -19086.248707    523.569287
PG21 -26295.839995  -2982.626150   -217.147094   -222.000078
PG22   9706.864300  24696.140415  -1512.872371   -674.664555
PG23  10616.172010  11766.903959  21608.472920   -192.055188
PG24 -14195.558852 -14613.138871 -17363.108415    -64.125463
PG25 -16096.951962 -15187.071421  14668.944148   -739.852378
PG26  -7123.977833  17725.120203  18359.182034    163.373759
PG27  -9986.813627  22370.850150  -9966.088649    -97.685637
PG28  14062.662456  -3354.051983 -21675.370118    766.996383
PG29 -13921.531590  -6257.820872  21709.747313    236.872212
PG30  25247.946229   -687.096660  -8491.888602    -77.907099
PG31 -18084.590196   8795.799040  17569.964297     48.409476
PG32 -19829.835698  16049.962188  -7131.468807   -155.327000
PJ01 -18303.590047  30431.249639 -18102.058517   -334.820740
PJ02 -26150.251998  20592.601382  30631.499429      0.805219
PJ03 -33882.935278  25079.884940   6575.902683     -0.343831
PR01   1353.567397  23942.352762   8722.756148     41.606160
PR02   9508.767440   8093.479757  22275.150190    361.356111
PR03  11188.411002 -11130.558718  20096.624261     -7.001769
PR04   6052.672407 -24107.179111   5791.001267    300.597251
PR05  -2071.109713 -22960.390890 -10927.759552     25.163875
PR07 -11105.804844  11579.826228 -19780.243863    -17.421783
PR08  -6354.578481  23842.215019  -6399.768519     18.433008
PR09 -21210.229005 -11906.265493   7586.939926     61.901833
PR10 -15934.005759   -933.437157  19844.619286     46.563770
PR11  -1059.665869  12688.758135  22117.897183    -61.414366
PR13  21325.169442  12618.294273  -6080.913739    -21.888137
PR14  16082.286195    603.224220 -19787.651185     37.435006
PR15   1797.807133 -12026.774615 -22409.086664    101.000273
PR16 -13925.140429 -17727.192549 -12083.025647     10.498337
PR17  23847.574427  -8893.807064  -1439.907538    216.425380
PR18  15804.266334 -13571.004002  14785.708985     38.985673
PR19   -601.419916 -10850.334323  23081.744092    -22.864340
PR20 -18502.085139  -1427.994921  17484.347280   -373.436336
PR21 -23801.088976   9161.740979    851.074482    -39.641096
PR22 -13559.800630  13519.700084 -16770.059753    -12.119643
PR23   6131.785183   8801.644177 -23146.577451    218.696156
PR24  19643.822260    105.752226 -16305.869175   -178.807041
PR26 -16873.118537  -2489.558276  18989.015156      4.328672
EOF
